{
  "type": "FeatureCollection",
  "properties": {
    "note": "Placeholder cable geometry (spherical forward-azimuth from ORIGIN per channel) — not a survey. Regenerate via scripts/generate-cable-route.mjs once real coordinates/route are available.",
    "origin": {
      "lat": 47.948072,
      "lon": -129.098919
    }
  },
  "features": [
    {
      "type": "Feature",
      "properties": {
        "channel": 1,
        "azimuthDeg": 110,
        "distances": [
          0,
          5,
          10,
          15,
          20,
          25,
          30,
          35,
          40,
          45,
          50,
          55,
          60,
          65,
          70,
          75,
          80,
          85,
          90,
          95,
          100,
          105,
          110,
          115,
          120,
          125,
          130,
          135,
          140,
          145,
          150,
          155,
          160,
          165,
          170,
          175,
          180,
          185,
          190,
          195,
          200,
          205,
          210,
          215,
          220,
          225,
          230,
          235,
          240,
          245,
          250,
          255,
          260,
          265,
          270,
          275,
          280,
          285,
          290,
          295,
          300,
          305,
          310,
          315,
          320,
          325,
          330,
          335,
          340,
          345,
          350,
          355,
          360,
          365,
          370,
          375,
          380,
          385,
          390,
          395,
          400,
          405,
          410,
          415,
          420,
          425,
          430,
          435,
          440,
          445,
          450,
          455,
          460,
          465,
          470,
          475,
          480,
          485,
          490,
          495,
          500,
          505,
          510,
          515,
          520,
          525,
          530,
          535,
          540,
          545,
          550,
          555,
          560
        ]
      },
      "geometry": {
        "type": "LineString",
        "coordinates": [
          [
            -129.09891899999997,
            47.948072
          ],
          [
            -129.09885591544025,
            47.9480566206775
          ],
          [
            -129.0987928309181,
            47.94804124132047
          ],
          [
            -129.0987297464334,
            47.94802586192887
          ],
          [
            -129.0986666619863,
            47.94801048250273
          ],
          [
            -129.09860357757677,
            47.94799510304204
          ],
          [
            -129.09854049320472,
            47.94797972354683
          ],
          [
            -129.09847740887025,
            47.94796434401705
          ],
          [
            -129.09841432457335,
            47.94794896445273
          ],
          [
            -129.09835124031395,
            47.94793358485387
          ],
          [
            -129.0982881560921,
            47.94791820522047
          ],
          [
            -129.09822507190782,
            47.94790282555251
          ],
          [
            -129.09816198776107,
            47.947887445850014
          ],
          [
            -129.09809890365185,
            47.947872066112986
          ],
          [
            -129.0980358195802,
            47.94785668634138
          ],
          [
            -129.09797273554608,
            47.94784130653526
          ],
          [
            -129.09790965154951,
            47.947825926694584
          ],
          [
            -129.0978465675905,
            47.94781054681935
          ],
          [
            -129.097783483669,
            47.947795166909586
          ],
          [
            -129.09772039978506,
            47.94777978696527
          ],
          [
            -129.09765731593865,
            47.94776440698642
          ],
          [
            -129.0975942321298,
            47.94774902697302
          ],
          [
            -129.09753114835848,
            47.94773364692509
          ],
          [
            -129.09746806462474,
            47.947718266842585
          ],
          [
            -129.09740498092853,
            47.947702886725565
          ],
          [
            -129.09734189726984,
            47.94768750657398
          ],
          [
            -129.09727881364873,
            47.94767212638786
          ],
          [
            -129.09721573006516,
            47.94765674616719
          ],
          [
            -129.0971526465191,
            47.947641365911984
          ],
          [
            -129.09708956301063,
            47.94762598562223
          ],
          [
            -129.09702647953966,
            47.947610605297925
          ],
          [
            -129.09696339610628,
            47.94759522493907
          ],
          [
            -129.09690031271043,
            47.947579844545686
          ],
          [
            -129.0968372293521,
            47.947564464117754
          ],
          [
            -129.09677414603132,
            47.947549083655296
          ],
          [
            -129.09671106274814,
            47.94753370315826
          ],
          [
            -129.09664797950242,
            47.9475183226267
          ],
          [
            -129.09658489629433,
            47.94750294206059
          ],
          [
            -129.09652181312373,
            47.947487561459944
          ],
          [
            -129.09645872999067,
            47.94747218082474
          ],
          [
            -129.0963956468952,
            47.947456800155
          ],
          [
            -129.09633256383725,
            47.94744141945072
          ],
          [
            -129.09626948081683,
            47.94742603871188
          ],
          [
            -129.09620639783398,
            47.94741065793851
          ],
          [
            -129.09614331488868,
            47.9473952771306
          ],
          [
            -129.09608023198092,
            47.94737989628815
          ],
          [
            -129.09601714911068,
            47.947364515411145
          ],
          [
            -129.09595406627804,
            47.9473491344996
          ],
          [
            -129.0958909834829,
            47.9473337535535
          ],
          [
            -129.09582790072528,
            47.94731837257288
          ],
          [
            -129.09576481800528,
            47.9473029915577
          ],
          [
            -129.09570173532276,
            47.947287610507985
          ],
          [
            -129.09563865267782,
            47.94727222942372
          ],
          [
            -129.09557557007042,
            47.94725684830492
          ],
          [
            -129.09551248750057,
            47.947241467151564
          ],
          [
            -129.09544940496826,
            47.94722608596366
          ],
          [
            -129.0953863224735,
            47.94721070474122
          ],
          [
            -129.09532324001626,
            47.947195323484245
          ],
          [
            -129.0952601575966,
            47.947179942192726
          ],
          [
            -129.0951970752145,
            47.94716456086666
          ],
          [
            -129.09513399286993,
            47.94714917950604
          ],
          [
            -129.0950709105629,
            47.9471337981109
          ],
          [
            -129.0950078282934,
            47.94711841668119
          ],
          [
            -129.09494474606146,
            47.94710303521696
          ],
          [
            -129.09488166386708,
            47.94708765371819
          ],
          [
            -129.09481858171023,
            47.947072272184855
          ],
          [
            -129.09475549959092,
            47.947056890617
          ],
          [
            -129.09469241750918,
            47.94704150901458
          ],
          [
            -129.094629335465,
            47.947026127377626
          ],
          [
            -129.0945662534583,
            47.94701074570613
          ],
          [
            -129.0945031714892,
            47.94699536400011
          ],
          [
            -129.09444008955765,
            47.94697998225952
          ],
          [
            -129.0943770076636,
            47.9469646004844
          ],
          [
            -129.09431392580714,
            47.946949218674725
          ],
          [
            -129.09425084398822,
            47.94693383683052
          ],
          [
            -129.09418776220684,
            47.94691845495176
          ],
          [
            -129.094124680463,
            47.94690307303848
          ],
          [
            -129.09406159875672,
            47.94688769109064
          ],
          [
            -129.093998517088,
            47.94687230910826
          ],
          [
            -129.0939354354568,
            47.94685692709134
          ],
          [
            -129.0938723538632,
            47.94684154503989
          ],
          [
            -129.09380927230706,
            47.946826162953876
          ],
          [
            -129.09374619078855,
            47.946810780833324
          ],
          [
            -129.09368310930753,
            47.94679539867824
          ],
          [
            -129.09362002786406,
            47.94678001648861
          ],
          [
            -129.09355694645816,
            47.94676463426443
          ],
          [
            -129.0934938650898,
            47.946749252005716
          ],
          [
            -129.093430783759,
            47.94673386971247
          ],
          [
            -129.0933677024657,
            47.94671848738465
          ],
          [
            -129.09330462121002,
            47.94670310502232
          ],
          [
            -129.09324153999185,
            47.94668772262543
          ],
          [
            -129.09317845881122,
            47.946672340194
          ],
          [
            -129.09311537766817,
            47.946656957728045
          ],
          [
            -129.09305229656263,
            47.94664157522753
          ],
          [
            -129.09298921549464,
            47.946626192692484
          ],
          [
            -129.0929261344642,
            47.9466108101229
          ],
          [
            -129.09286305347135,
            47.946595427518766
          ],
          [
            -129.092799972516,
            47.94658004488007
          ],
          [
            -129.09273689159824,
            47.94656466220685
          ],
          [
            -129.09267381071797,
            47.9465492794991
          ],
          [
            -129.0926107298753,
            47.94653389675682
          ],
          [
            -129.09254764907013,
            47.94651851397997
          ],
          [
            -129.09248456830252,
            47.94650313116858
          ],
          [
            -129.0924214875725,
            47.94648774832266
          ],
          [
            -129.09235840687998,
            47.9464723654422
          ],
          [
            -129.09229532622504,
            47.946456982527174
          ],
          [
            -129.09223224560765,
            47.946441599577646
          ],
          [
            -129.0921691650278,
            47.946426216593544
          ],
          [
            -129.09210608448547,
            47.946410833574916
          ],
          [
            -129.09204300398073,
            47.94639545052174
          ],
          [
            -129.09197992351352,
            47.94638006743402
          ],
          [
            -129.09191684308385,
            47.94636468431177
          ],
          [
            -129.09185376269173,
            47.946349301154974
          ]
        ]
      }
    },
    {
      "type": "Feature",
      "properties": {
        "channel": 2,
        "azimuthDeg": 20,
        "distances": [
          0,
          5,
          10,
          15,
          20,
          25,
          30,
          35,
          40,
          45,
          50,
          55,
          60,
          65,
          70,
          75,
          80,
          85,
          90,
          95,
          100,
          105,
          110,
          115,
          120,
          125,
          130,
          135,
          140,
          145,
          150,
          155,
          160,
          165,
          170,
          175,
          180,
          185,
          190,
          195,
          200,
          205,
          210,
          215,
          220,
          225,
          230,
          235,
          240,
          245,
          250,
          255,
          260,
          265,
          270,
          275,
          280,
          285,
          290,
          295,
          300,
          305,
          310,
          315,
          320,
          325,
          330,
          335,
          340,
          345,
          350,
          355,
          360,
          365,
          370,
          375,
          380,
          385,
          390,
          395,
          400
        ]
      },
      "geometry": {
        "type": "LineString",
        "coordinates": [
          [
            -129.09891899999997,
            47.948072
          ],
          [
            -129.0988960390724,
            47.94811425429155
          ],
          [
            -129.09887307810726,
            47.948156508578535
          ],
          [
            -129.09885011710458,
            47.94819876286093
          ],
          [
            -129.09882715606435,
            47.948241017138756
          ],
          [
            -129.0988041949866,
            47.94828327141199
          ],
          [
            -129.09878123387128,
            47.94832552568067
          ],
          [
            -129.09875827271844,
            47.94836777994475
          ],
          [
            -129.09873531152803,
            47.94841003420427
          ],
          [
            -129.0987123503001,
            47.948452288459215
          ],
          [
            -129.0986893890346,
            47.94849454270958
          ],
          [
            -129.09866642773156,
            47.94853679695537
          ],
          [
            -129.098643466391,
            47.94857905119658
          ],
          [
            -129.09862050501286,
            47.948621305433214
          ],
          [
            -129.09859754359718,
            47.94866355966527
          ],
          [
            -129.09857458214398,
            47.948705813892744
          ],
          [
            -129.0985516206532,
            47.94874806811566
          ],
          [
            -129.09852865912492,
            47.94879032233398
          ],
          [
            -129.09850569755906,
            47.94883257654773
          ],
          [
            -129.09848273595566,
            47.9488748307569
          ],
          [
            -129.0984597743147,
            47.9489170849615
          ],
          [
            -129.09843681263624,
            47.94895933916152
          ],
          [
            -129.0984138509202,
            47.94900159335697
          ],
          [
            -129.0983908891666,
            47.94904384754783
          ],
          [
            -129.09836792737548,
            47.94908610173413
          ],
          [
            -129.0983449655468,
            47.94912835591584
          ],
          [
            -129.09832200368058,
            47.949170610092985
          ],
          [
            -129.0982990417768,
            47.94921286426554
          ],
          [
            -129.0982760798355,
            47.94925511843353
          ],
          [
            -129.09825311785664,
            47.94929737259693
          ],
          [
            -129.0982301558402,
            47.94933962675576
          ],
          [
            -129.09820719378627,
            47.94938188091001
          ],
          [
            -129.09818423169477,
            47.949424135059694
          ],
          [
            -129.0981612695657,
            47.94946638920479
          ],
          [
            -129.0981383073991,
            47.94950864334532
          ],
          [
            -129.098115345195,
            47.94955089748126
          ],
          [
            -129.09809238295327,
            47.949593151612625
          ],
          [
            -129.09806942067402,
            47.94963540573942
          ],
          [
            -129.09804645835723,
            47.949677659861635
          ],
          [
            -129.0980234960029,
            47.94971991397928
          ],
          [
            -129.098000533611,
            47.94976216809235
          ],
          [
            -129.0979775711816,
            47.94980442220083
          ],
          [
            -129.0979546087146,
            47.949846676304745
          ],
          [
            -129.09793164621007,
            47.949888930404065
          ],
          [
            -129.097908683668,
            47.94993118449882
          ],
          [
            -129.09788572108837,
            47.94997343858899
          ],
          [
            -129.09786275847117,
            47.950015692674604
          ],
          [
            -129.09783979581644,
            47.950057946755614
          ],
          [
            -129.09781683312414,
            47.95010020083206
          ],
          [
            -129.09779387039436,
            47.95014245490393
          ],
          [
            -129.09777090762697,
            47.95018470897122
          ],
          [
            -129.09774794482203,
            47.950226963033934
          ],
          [
            -129.09772498197958,
            47.950269217092085
          ],
          [
            -129.09770201909953,
            47.95031147114564
          ],
          [
            -129.097679056182,
            47.95035372519462
          ],
          [
            -129.09765609322685,
            47.950395979239026
          ],
          [
            -129.0976331302342,
            47.950438233278845
          ],
          [
            -129.09761016720395,
            47.95048048731411
          ],
          [
            -129.09758720413618,
            47.95052274134478
          ],
          [
            -129.09756424103085,
            47.95056499537088
          ],
          [
            -129.09754127788798,
            47.95060724939239
          ],
          [
            -129.09751831470754,
            47.95064950340933
          ],
          [
            -129.09749535148958,
            47.9506917574217
          ],
          [
            -129.09747238823405,
            47.950734011429496
          ],
          [
            -129.09744942494098,
            47.95077626543271
          ],
          [
            -129.09742646161035,
            47.950818519431344
          ],
          [
            -129.0974034982422,
            47.9508607734254
          ],
          [
            -129.09738053483645,
            47.95090302741487
          ],
          [
            -129.09735757139316,
            47.950945281399775
          ],
          [
            -129.09733460791233,
            47.950987535380094
          ],
          [
            -129.09731164439393,
            47.95102978935585
          ],
          [
            -129.097288680838,
            47.95107204332703
          ],
          [
            -129.0972657172445,
            47.9511142972936
          ],
          [
            -129.09724275361347,
            47.95115655125563
          ],
          [
            -129.0972197899449,
            47.95119880521306
          ],
          [
            -129.09719682623873,
            47.951241059165916
          ],
          [
            -129.09717386249503,
            47.951283313114196
          ],
          [
            -129.09715089871378,
            47.951325567057914
          ],
          [
            -129.09712793489498,
            47.95136782099703
          ],
          [
            -129.09710497103862,
            47.95141007493158
          ],
          [
            -129.09708200714473,
            47.95145232886156
          ]
        ]
      }
    }
  ]
}
